{
  "type": "FeatureCollection",
  "features": [
    {
      "type": "Feature",
      "properties": {
        "norad_id": 30144,
        "name": "FENGYUN 1C DEB",
        "group": "fengyun-1c-debris",
        "lat": -20.85347166782486,
        "lon": 164.99955585709554,
        "alt_km": 887.1004715616846,
        "timestamp": "2025-12-21T22:41:41.734129+00:00",
        "meta_object_name": "FENGYUN 1C DEB",
        "meta_object_id": "1999-025SZ",
        "meta_epoch": "2025-12-20T11:51:00.005184",
        "meta_mean_motion": 13.91828778,
        "meta_eccentricity": 0.01255831,
        "meta_inclination": 99.0099,
        "meta_ra_of_asc_node": 347.054,
        "meta_arg_of_pericenter": 269.5648,
        "meta_mean_anomaly": 221.971,
        "meta_ephemeris_type": 0,
        "meta_classification_type": "U",
        "meta_norad_cat_id": 30144,
        "meta_element_set_no": 999,
        "meta_rev_at_epoch": 95948,
        "meta_bstar": 0.00040974688,
        "meta_mean_motion_dot": 5.12e-06,
        "meta_mean_motion_ddot": 0,
        "tle_line1": "1 30144U 99025SZ  25354.49375006  .00000512  00000+0  40975-3 0  9995",
        "tle_line2": "2 30144  99.0099 347.0540 0125583 269.5648 221.9710 13.91828778959488"
      },
      "geometry": {
        "type": "Point",
        "coordinates": [
          164.99955585709554,
          -20.85347166782486
        ]
      }
    },
    {
      "type": "Feature",
      "properties": {
        "norad_id": 30145,
        "name": "FENGYUN 1C DEB",
        "group": "fengyun-1c-debris",
        "lat": -64.33208181511777,
        "lon": 125.73441045824627,
        "alt_km": 917.039874481221,
        "timestamp": "2025-12-21T22:41:41.734140+00:00",
        "meta_object_name": "FENGYUN 1C DEB",
        "meta_object_id": "1999-025TA",
        "meta_epoch": "2025-12-21T06:10:20.561952",
        "meta_mean_motion": 14.14108382,
        "meta_eccentricity": 0.0090567,
        "meta_inclination": 99.2701,
        "meta_ra_of_asc_node": 105.1529,
        "meta_arg_of_pericenter": 125.3406,
        "meta_mean_anomaly": 265.8046,
        "meta_ephemeris_type": 0,
        "meta_classification_type": "U",
        "meta_norad_cat_id": 30145,
        "meta_element_set_no": 999,
        "meta_rev_at_epoch": 96316,
        "meta_bstar": 0.0021388,
        "meta_mean_motion_dot": 4.19e-05,
        "meta_mean_motion_ddot": 0,
        "tle_line1": "1 30145U 99025TA  25355.25718243  .00004190  00000+0  21388-2 0  9997",
        "tle_line2": "2 30145  99.2701 105.1529 0090567 125.3406 265.8046 14.14108382963162"
      },
      "geometry": {
        "type": "Point",
        "coordinates": [
          125.73441045824627,
          -64.33208181511777
        ]
      }
    },
    {
      "type": "Feature",
      "properties": {
        "norad_id": 30146,
        "name": "FENGYUN 1C DEB",
        "group": "fengyun-1c-debris",
        "lat": 68.7335923767301,
        "lon": 133.02677125780428,
        "alt_km": 816.9024754566308,
        "timestamp": "2025-12-21T22:41:41.734150+00:00",
        "meta_object_name": "FENGYUN 1C DEB",
        "meta_object_id": "1999-025TB",
        "meta_epoch": "2025-12-21T08:49:22.762848",
        "meta_mean_motion": 13.86612753,
        "meta_eccentricity": 0.01787282,
        "meta_inclination": 98.0206,
        "meta_ra_of_asc_node": 153.7697,
        "meta_arg_of_pericenter": 98.9985,
        "meta_mean_anomaly": 328.5559,
        "meta_ephemeris_type": 0,
        "meta_classification_type": "U",
        "meta_norad_cat_id": 30146,
        "meta_element_set_no": 999,
        "meta_rev_at_epoch": 95537,
        "meta_bstar": 0.00046659653,
        "meta_mean_motion_dot": 5.82e-06,
        "meta_mean_motion_ddot": 0,
        "tle_line1": "1 30146U 99025TB  25355.36762457  .00000582  00000+0  46660-3 0  9998",
        "tle_line2": "2 30146  98.0206 153.7697 0178728  98.9985 328.5559 13.86612753955378"
      },
      "geometry": {
        "type": "Point",
        "coordinates": [
          133.02677125780428,
          68.7335923767301
        ]
      }
    },
    {
      "type": "Feature",
      "properties": {
        "norad_id": 30148,
        "name": "FENGYUN 1C DEB",
        "group": "fengyun-1c-debris",
        "lat": 19.761723726897646,
        "lon": -31.06725839713533,
        "alt_km": 837.3221804631003,
        "timestamp": "2025-12-21T22:41:41.734160+00:00",
        "meta_object_name": "FENGYUN 1C DEB",
        "meta_object_id": "1999-025TD",
        "meta_epoch": "2025-12-20T09:53:13.593696",
        "meta_mean_motion": 13.88503056,
        "meta_eccentricity": 0.0135042,
        "meta_inclination": 99.5455,
        "meta_ra_of_asc_node": 143.8979,
        "meta_arg_of_pericenter": 176.3114,
        "meta_mean_anomaly": 241.7748,
        "meta_ephemeris_type": 0,
        "meta_classification_type": "U",
        "meta_norad_cat_id": 30148,
        "meta_element_set_no": 999,
        "meta_rev_at_epoch": 95623,
        "meta_bstar": 0.00058409841,
        "meta_mean_motion_dot": 7.08e-06,
        "meta_mean_motion_ddot": 0,
        "tle_line1": "1 30148U 99025TD  25354.41196289  .00000708  00000+0  58410-3 0  9995",
        "tle_line2": "2 30148  99.5455 143.8979 0135042 176.3114 241.7748 13.88503056956231"
      },
      "geometry": {
        "type": "Point",
        "coordinates": [
          -31.06725839713533,
          19.761723726897646
        ]
      }
    },
    {
      "type": "Feature",
      "properties": {
        "norad_id": 30150,
        "name": "FENGYUN 1C DEB",
        "group": "fengyun-1c-debris",
        "lat": -51.34017579247533,
        "lon": -59.83281250594174,
        "alt_km": 925.4339145568138,
        "timestamp": "2025-12-21T22:41:41.734170+00:00",
        "meta_object_name": "FENGYUN 1C DEB",
        "meta_object_id": "1999-025TF",
        "meta_epoch": "2025-12-20T07:46:22.857024",
        "meta_mean_motion": 13.86602986,
        "meta_eccentricity": 0.01464104,
        "meta_inclination": 98.9948,
        "meta_ra_of_asc_node": 130.027,
        "meta_arg_of_pericenter": 315.527,
        "meta_mean_anomaly": 107.2744,
        "meta_ephemeris_type": 0,
        "meta_classification_type": "U",
        "meta_norad_cat_id": 30150,
        "meta_element_set_no": 999,
        "meta_rev_at_epoch": 95563,
        "meta_bstar": 0.00041454165,
        "meta_mean_motion_dot": 4.81e-06,
        "meta_mean_motion_ddot": 0,
        "tle_line1": "1 30150U 99025TF  25354.32387566  .00000481  00000+0  41454-3 0  9996",
        "tle_line2": "2 30150  98.9948 130.0270 0146410 315.5270 107.2744 13.86602986955632"
      },
      "geometry": {
        "type": "Point",
        "coordinates": [
          -59.83281250594174,
          -51.34017579247533
        ]
      }
    },
    {
      "type": "Feature",
      "properties": {
        "norad_id": 30151,
        "name": "FENGYUN 1C DEB",
        "group": "fengyun-1c-debris",
        "lat": -32.180308139839354,
        "lon": 9.369356112642768,
        "alt_km": 918.3064808158069,
        "timestamp": "2025-12-21T22:41:41.734180+00:00",
        "meta_object_name": "FENGYUN 1C DEB",
        "meta_object_id": "1999-025TG",
        "meta_epoch": "2025-12-21T00:37:23.890944",
        "meta_mean_motion": 13.84483194,
        "meta_eccentricity": 0.01631951,
        "meta_inclination": 99.0632,
        "meta_ra_of_asc_node": 2.7171,
        "meta_arg_of_pericenter": 256.415,
        "meta_mean_anomaly": 168.0646,
        "meta_ephemeris_type": 0,
        "meta_classification_type": "U",
        "meta_norad_cat_id": 30151,
        "meta_element_set_no": 999,
        "meta_rev_at_epoch": 95360,
        "meta_bstar": 0.00040703531,
        "meta_mean_motion_dot": 4.62e-06,
        "meta_mean_motion_ddot": 0,
        "tle_line1": "1 30151U 99025TG  25355.02597096  .00000462  00000+0  40704-3 0  9992",
        "tle_line2": "2 30151  99.0632   2.7171 0163195 256.4150 168.0646 13.84483194953606"
      },
      "geometry": {
        "type": "Point",
        "coordinates": [
          9.369356112642768,
          -32.180308139839354
        ]
      }
    },
    {
      "type": "Feature",
      "properties": {
        "norad_id": 30152,
        "name": "FENGYUN 1C DEB",
        "group": "fengyun-1c-debris",
        "lat": 44.079893946519626,
        "lon": 42.49124629595589,
        "alt_km": 869.0464735897158,
        "timestamp": "2025-12-21T22:41:41.734190+00:00",
        "meta_object_name": "FENGYUN 1C DEB",
        "meta_object_id": "1999-025TH",
        "meta_epoch": "2025-12-21T03:09:18.514656",
        "meta_mean_motion": 13.9674484,
        "meta_eccentricity": 0.01624341,
        "meta_inclination": 99.0801,
        "meta_ra_of_asc_node": 212.7786,
        "meta_arg_of_pericenter": 62.2759,
        "meta_mean_anomaly": 299.4774,
        "meta_ephemeris_type": 0,
        "meta_classification_type": "U",
        "meta_norad_cat_id": 30152,
        "meta_element_set_no": 999,
        "meta_rev_at_epoch": 95495,
        "meta_bstar": 0.0018196348,
        "meta_mean_motion_dot": 2.781e-05,
        "meta_mean_motion_ddot": 0,
        "tle_line1": "1 30152U 99025TH  25355.13146429  .00002781  00000+0  18196-2 0  9990",
        "tle_line2": "2 30152  99.0801 212.7786 0162434  62.2759 299.4774 13.96744840954954"
      },
      "geometry": {
        "type": "Point",
        "coordinates": [
          42.49124629595589,
          44.079893946519626
        ]
      }
    }
  ]
}